CCSDS_OMM_VERS = 2.0
CREATION_DATE  = 
ORIGINATOR     = 

OBJECT_NAME    = H-2A R/B
OBJECT_ID      = 2006-002B
CENTER_NAME    = EARTH
REF_FRAME      = TEME
TIME_SYSTEM    = UTC
MEAN_ELEMENT_THEORY = SGP/SGP4

EPOCH          = 2026-03-24T23:34:30.242208
MEAN_MOTION    = 15.16746520
ECCENTRICITY   = .00523291
INCLINATION    = 98.2441
RA_OF_ASC_NODE = 232.3273
ARG_OF_PERICENTER = 188.5964
MEAN_ANOMALY   = 171.4376

EPHEMERIS_TYPE = 0
CLASSIFICATION_TYPE = U
NORAD_CAT_ID   = 28932
ELEMENT_SET_NO = 999
REV_AT_EPOCH   = 9675
BSTAR          = .44629928E-3
MEAN_MOTION_DOT = .899E-4
MEAN_MOTION_DDOT = 0

CCSDS_OMM_VERS = 2.0
CREATION_DATE  = 
ORIGINATOR     = 

OBJECT_NAME    = RESURS-DK 1
OBJECT_ID      = 2006-021A
CENTER_NAME    = EARTH
REF_FRAME      = TEME
TIME_SYSTEM    = UTC
MEAN_ELEMENT_THEORY = SGP/SGP4

EPOCH          = 2026-03-24T17:50:33.912384
MEAN_MOTION    = 15.12841136
ECCENTRICITY   = .00007816
INCLINATION    = 69.9339
RA_OF_ASC_NODE = 198.0817
ARG_OF_PERICENTER = 79.2004
MEAN_ANOMALY   = 280.9250

EPHEMERIS_TYPE = 0
CLASSIFICATION_TYPE = U
NORAD_CAT_ID   = 29228
ELEMENT_SET_NO = 999
REV_AT_EPOCH   = 8980
BSTAR          = .14252087E-3
MEAN_MOTION_DOT = .2404E-4
MEAN_MOTION_DDOT = 0

CCSDS_OMM_VERS = 2.0
CREATION_DATE  = 
ORIGINATOR     = 

OBJECT_NAME    = CZ-4B R/B
OBJECT_ID      = 2006-046C
CENTER_NAME    = EARTH
REF_FRAME      = TEME
TIME_SYSTEM    = UTC
MEAN_ELEMENT_THEORY = SGP/SGP4

EPOCH          = 2026-03-24T20:19:00.767424
MEAN_MOTION    = 15.17054374
ECCENTRICITY   = .00323554
INCLINATION    = 97.5564
RA_OF_ASC_NODE = 128.7141
ARG_OF_PERICENTER = 212.5419
MEAN_ANOMALY   = 147.3820

EPHEMERIS_TYPE = 0
CLASSIFICATION_TYPE = U
NORAD_CAT_ID   = 29507
ELEMENT_SET_NO = 999
REV_AT_EPOCH   = 6234
BSTAR          = .20893533E-3
MEAN_MOTION_DOT = .4119E-4
MEAN_MOTION_DDOT = 0

CCSDS_OMM_VERS = 2.0
CREATION_DATE  = 
ORIGINATOR     = 

OBJECT_NAME    = CZ-2C R/B
OBJECT_ID      = 2007-010B
CENTER_NAME    = EARTH
REF_FRAME      = TEME
TIME_SYSTEM    = UTC
MEAN_ELEMENT_THEORY = SGP/SGP4

EPOCH          = 2026-03-24T22:38:07.562976
MEAN_MOTION    = 14.20251483
ECCENTRICITY   = .00579297
INCLINATION    = 98.3995
RA_OF_ASC_NODE = 196.4586
ARG_OF_PERICENTER = 249.3816
MEAN_ANOMALY   = 110.1142

EPHEMERIS_TYPE = 0
CLASSIFICATION_TYPE = U
NORAD_CAT_ID   = 31114
ELEMENT_SET_NO = 999
REV_AT_EPOCH   = 98188
BSTAR          = .79409121E-4
MEAN_MOTION_DOT = .131E-5
MEAN_MOTION_DDOT = 0

CCSDS_OMM_VERS = 2.0
CREATION_DATE  = 
ORIGINATOR     = 

OBJECT_NAME    = COSMO-SKYMED 1
OBJECT_ID      = 2007-023A
CENTER_NAME    = EARTH
REF_FRAME      = TEME
TIME_SYSTEM    = UTC
MEAN_ELEMENT_THEORY = SGP/SGP4

EPOCH          = 2026-03-24T23:24:28.518048
MEAN_MOTION    = 14.96644486
ECCENTRICITY   = .00010327
INCLINATION    = 97.8880
RA_OF_ASC_NODE = 275.1320
ARG_OF_PERICENTER = 89.6361
MEAN_ANOMALY   = 270.4978

EPHEMERIS_TYPE = 0
CLASSIFICATION_TYPE = U
NORAD_CAT_ID   = 31598
ELEMENT_SET_NO = 999
REV_AT_EPOCH   = 1719
BSTAR          = .24230547E-3
MEAN_MOTION_DOT = .2703E-4
MEAN_MOTION_DDOT = 0

CCSDS_OMM_VERS = 2.0
CREATION_DATE  = 
ORIGINATOR     = 

OBJECT_NAME    = COSMOS 2428
OBJECT_ID      = 2007-029A
CENTER_NAME    = EARTH
REF_FRAME      = TEME
TIME_SYSTEM    = UTC
MEAN_ELEMENT_THEORY = SGP/SGP4

EPOCH          = 2026-03-24T23:13:57.677952
MEAN_MOTION    = 14.12948070
ECCENTRICITY   = .00096328
INCLINATION    = 70.9440
RA_OF_ASC_NODE = 171.2775
ARG_OF_PERICENTER = 261.4650
MEAN_ANOMALY   = 98.5380

EPHEMERIS_TYPE = 0
CLASSIFICATION_TYPE = U
NORAD_CAT_ID   = 31792
ELEMENT_SET_NO = 999
REV_AT_EPOCH   = 96625
BSTAR          = .16091562E-4
MEAN_MOTION_DOT = -.18E-6
MEAN_MOTION_DDOT = 0

CCSDS_OMM_VERS = 2.0
CREATION_DATE  = 
ORIGINATOR     = 

OBJECT_NAME    = SL-16 R/B
OBJECT_ID      = 2007-029B
CENTER_NAME    = EARTH
REF_FRAME      = TEME
TIME_SYSTEM    = UTC
MEAN_ELEMENT_THEORY = SGP/SGP4

EPOCH          = 2026-03-24T22:15:42.687360
MEAN_MOTION    = 14.14842257
ECCENTRICITY   = .00025494
INCLINATION    = 70.9753
RA_OF_ASC_NODE = 140.3552
ARG_OF_PERICENTER = 277.3252
MEAN_ANOMALY   = 255.2018

EPHEMERIS_TYPE = 0
CLASSIFICATION_TYPE = U
NORAD_CAT_ID   = 31793
ELEMENT_SET_NO = 999
REV_AT_EPOCH   = 96752
BSTAR          = .11988487E-3
MEAN_MOTION_DOT = .184E-5
MEAN_MOTION_DDOT = 0

CCSDS_OMM_VERS = 2.0
CREATION_DATE  = 
ORIGINATOR     = 

OBJECT_NAME    = KORONAS-FOTON
OBJECT_ID      = 2009-003A
CENTER_NAME    = EARTH
REF_FRAME      = TEME
TIME_SYSTEM    = UTC
MEAN_ELEMENT_THEORY = SGP/SGP4

EPOCH          = 2026-03-24T22:25:35.694624
MEAN_MOTION    = 15.43714932
ECCENTRICITY   = .00118163
INCLINATION    = 82.4279
RA_OF_ASC_NODE = 260.0210
ARG_OF_PERICENTER = 100.3246
MEAN_ANOMALY   = 259.9334

EPHEMERIS_TYPE = 0
CLASSIFICATION_TYPE = U
NORAD_CAT_ID   = 33504
ELEMENT_SET_NO = 999
REV_AT_EPOCH   = 94809
BSTAR          = .27776336E-3
MEAN_MOTION_DOT = .12608E-3
MEAN_MOTION_DDOT = 0

CCSDS_OMM_VERS = 2.0
CREATION_DATE  = 
ORIGINATOR     = 

OBJECT_NAME    = CZ-2C R/B
OBJECT_ID      = 2011-030B
CENTER_NAME    = EARTH
REF_FRAME      = TEME
TIME_SYSTEM    = UTC
MEAN_ELEMENT_THEORY = SGP/SGP4

EPOCH          = 2026-03-24T20:53:07.817568
MEAN_MOTION    = 14.81274019
ECCENTRICITY   = .00512704
INCLINATION    = 97.8570
RA_OF_ASC_NODE = 40.8325
ARG_OF_PERICENTER = 301.9877
MEAN_ANOMALY   = 74.4370

EPHEMERIS_TYPE = 0
CLASSIFICATION_TYPE = U
NORAD_CAT_ID   = 37731
ELEMENT_SET_NO = 999
REV_AT_EPOCH   = 79234
BSTAR          = .19077795E-3
MEAN_MOTION_DOT = .1466E-4
MEAN_MOTION_DDOT = 0

CCSDS_OMM_VERS = 2.0
CREATION_DATE  = 
ORIGINATOR     = 

OBJECT_NAME    = H-2A R/B
OBJECT_ID      = 2012-025E
CENTER_NAME    = EARTH
REF_FRAME      = TEME
TIME_SYSTEM    = UTC
MEAN_ELEMENT_THEORY = SGP/SGP4

EPOCH          = 2026-03-24T22:04:03.523872
MEAN_MOTION    = 14.95270697
ECCENTRICITY   = .00427339
INCLINATION    = 98.4757
RA_OF_ASC_NODE = 52.1886
ARG_OF_PERICENTER = 262.6619
MEAN_ANOMALY   = 96.9741

EPHEMERIS_TYPE = 0
CLASSIFICATION_TYPE = U
NORAD_CAT_ID   = 38341
ELEMENT_SET_NO = 999
REV_AT_EPOCH   = 75049
BSTAR          = .30161974E-3
MEAN_MOTION_DOT = .3311E-4
MEAN_MOTION_DDOT = 0

CCSDS_OMM_VERS = 2.0
CREATION_DATE  = 
ORIGINATOR     = 

OBJECT_NAME    = SHIJIAN-16 (SJ-16)
OBJECT_ID      = 2013-057A
CENTER_NAME    = EARTH
REF_FRAME      = TEME
TIME_SYSTEM    = UTC
MEAN_ELEMENT_THEORY = SGP/SGP4

EPOCH          = 2026-03-24T23:32:04.004160
MEAN_MOTION    = 14.92410499
ECCENTRICITY   = .00152284
INCLINATION    = 74.9725
RA_OF_ASC_NODE = 156.1423
ARG_OF_PERICENTER = 72.6877
MEAN_ANOMALY   = 287.5976

EPHEMERIS_TYPE = 0
CLASSIFICATION_TYPE = U
NORAD_CAT_ID   = 39358
ELEMENT_SET_NO = 999
REV_AT_EPOCH   = 67378
BSTAR          = .22512567E-3
MEAN_MOTION_DOT = .2282E-4
MEAN_MOTION_DDOT = 0

CCSDS_OMM_VERS = 2.0
CREATION_DATE  = 
ORIGINATOR     = 

OBJECT_NAME    = SL-4 R/B
OBJECT_ID      = 2014-021B
CENTER_NAME    = EARTH
REF_FRAME      = TEME
TIME_SYSTEM    = UTC
MEAN_ELEMENT_THEORY = SGP/SGP4

EPOCH          = 2026-03-24T19:39:45.851616
MEAN_MOTION    = 15.39681109
ECCENTRICITY   = .00960976
INCLINATION    = 51.6056
RA_OF_ASC_NODE = 263.4395
ARG_OF_PERICENTER = 158.0915
MEAN_ANOMALY   = 202.4220

EPHEMERIS_TYPE = 0
CLASSIFICATION_TYPE = U
NORAD_CAT_ID   = 39679
ELEMENT_SET_NO = 999
REV_AT_EPOCH   = 65860
BSTAR          = .34962774E-3
MEAN_MOTION_DOT = .16082E-3
MEAN_MOTION_DDOT = 0

